     3.03           N: GNSS NAV DATA    M: MIXED            RINEX VERSION / TYPE
sbf2rin-12.3.1                          20181126 142339 UTC PGM / RUN BY / DATE 
GPSA   4.6566E-09  1.4901E-08 -5.9605E-08 -5.9605E-08       IONOSPHERIC CORR    
GPSB   7.9872E+04  6.5536E+04 -6.5536E+04 -3.9322E+05       IONOSPHERIC CORR    
GAL    5.2750E+01  3.9063E-03  2.6550E-03  0.0000E+00       IONOSPHERIC CORR    
GPUT -8.1490725279E-10 5.329070518E-15 362704 2011          TIME SYSTEM CORR    
GAUT  7.4505805969E-09-2.664535259E-15 345600 2011          TIME SYSTEM CORR    
GPGA  1.1437805369E-08 1.332267630E-14 432000 2011          TIME SYSTEM CORR    
    18                                                      LEAP SECONDS        
                                                            END OF HEADER       
E09 2018 07 26 13 30 00 6.724031292833E-03-1.088551471184E-11 0.000000000000E+00
     1.700000000000E+01 3.525000000000E+01 3.385498162445E-09 9.323335075243E-01
     1.704320311546E-06 4.600115353242E-04 5.716457962990E-06 5.440611700058E+03
     3.942000000000E+05 3.166496753693E-08-2.078504505370E+00-1.303851604462E-08
     9.582847730930E-01 2.154375000000E+02-9.680355112275E-01-5.624162840386E-09
     5.135928217740E-10 2.580000000000E+02 2.011000000000E+03
     3.120000000000E+00 0.000000000000E+00-3.259629011154E-09 0.000000000000E+00
     3.950400000000E+05
E19 2018 07 26 13 30 00-1.376948785037E-05 2.842170943040E-13 0.000000000000E+00
     1.700000000000E+01 3.221875000000E+01 3.405498995560E-09-2.857092489599E+00
     1.534819602966E-06 2.995893592015E-04 5.632638931274E-06 5.440606416702E+03
     3.942000000000E+05-5.587935447693E-09-2.073119167449E+00-7.450580596924E-08
     9.580445531669E-01 2.202500000000E+02-1.817792676716E+00-5.597733168055E-09
     4.553761111000E-10 2.580000000000E+02 2.011000000000E+03
     3.120000000000E+00 0.000000000000E+00-8.614733815193E-09 0.000000000000E+00
     3.950400000000E+05
E30 2018 07 26 13 30 00 5.647161160596E-03-3.090860900556E-11 0.000000000000E+00
     1.700000000000E+01 1.227500000000E+02 2.408314601684E-09-8.900537837984E-02
     5.686655640602E-06 1.972954487428E-04 1.107342541218E-05 5.440613565445E+03
     3.942000000000E+05 3.725290298462E-09 2.554578710171E-02 2.421438694000E-08
     9.901401287964E-01 1.140312500000E+02 1.886395766538E+00-5.095926551510E-09
    -4.535903224290E-11 5.170000000000E+02 2.011000000000E+03
     3.120000000000E+00 0.000000000000E+00-3.725290298462E-09-4.423782229424E-09
     3.951270000000E+05
E30 2018 07 26 13 30 00 5.647161684465E-03-3.092281986028E-11 0.000000000000E+00
     1.700000000000E+01 1.227500000000E+02 2.408314601684E-09-8.900537837984E-02
     5.686655640602E-06 1.972954487428E-04 1.107342541218E-05 5.440613565445E+03
     3.942000000000E+05 3.725290298462E-09 2.554578710171E-02 2.421438694000E-08
     9.901401287964E-01 1.140312500000E+02 1.886395766538E+00-5.095926551510E-09
    -4.535903224290E-11 2.580000000000E+02 2.011000000000E+03
     3.120000000000E+00 0.000000000000E+00-3.725290298462E-09 0.000000000000E+00
     3.951900000000E+05
E30 2018 07 26 13 40 00 5.647142708767E-03-3.090860900556E-11 0.000000000000E+00
     1.800000000000E+01 1.205625000000E+02 2.393671134582E-09-1.509244452375E-02
     5.608424544334E-06 1.975753111765E-04 1.109763979912E-05 5.440614156723E+03
     3.948000000000E+05-5.587935447693E-09 2.554268278955E-02 2.048909664154E-08
     9.901401024639E-01 1.133437500000E+02 1.886867926274E+00-5.091640658699E-09
    -4.071598169835E-11 5.170000000000E+02 2.011000000000E+03
     3.120000000000E+00 0.000000000000E+00-3.725290298462E-09-4.423782229424E-09
     3.954870000000E+05
E09 2018 07 26 13 40 00 6.724024075083E-03-1.088551471184E-11 0.000000000000E+00
     1.800000000000E+01 3.487500000000E+01 3.381569427369E-09 1.006871356096E+00
     1.681968569756E-06 4.599957028404E-04 5.740672349930E-06 5.440611555099E+03
     3.948000000000E+05 3.539025783539E-08-2.078507877396E+00-5.587935447693E-09
     9.582851183416E-01 2.150312500000E+02-9.681877966108E-01-5.617734001170E-09
     5.114498753688E-10 5.170000000000E+02 2.011000000000E+03
     3.120000000000E+00 0.000000000000E+00-3.259629011154E-09-4.190951585770E-09
     3.955540000000E+05
E02 2018 07 26 13 40 00 2.100714482367E-05 1.463718035666E-12 0.000000000000E+00
     1.800000000000E+01 1.128437500000E+02 2.340454632187E-09-8.805067877277E-01
     5.407258868217E-06 7.359276060015E-05 1.120381057262E-05 5.440619630814E+03
     3.948000000000E+05 5.401670932770E-08 2.180593504758E-02-5.587935447693E-09
     9.925890200140E-01 1.148750000000E+02-2.741458191275E+00-5.015923219050E-09
    -3.678724662220E-11 5.170000000000E+02 2.011000000000E+03
     3.120000000000E+00 0.000000000000E+00-6.752088665962E-09-8.149072527885E-09
     3.955820000000E+05
E09 2018 07 26 13 40 00 6.724024773575E-03-1.088551471184E-11 0.000000000000E+00
     1.800000000000E+01 3.487500000000E+01 3.381569427369E-09 1.006871356096E+00
     1.681968569756E-06 4.599957028404E-04 5.740672349930E-06 5.440611555099E+03
     3.948000000000E+05 3.539025783539E-08-2.078507877396E+00-5.587935447693E-09
     9.582851183416E-01 2.150312500000E+02-9.681877966108E-01-5.617734001170E-09
     5.114498753688E-10 2.580000000000E+02 2.011000000000E+03
     3.120000000000E+00 0.000000000000E+00-3.259629011154E-09 0.000000000000E+00
     3.957200000000E+05
E02 2018 07 26 13 40 00 2.100854180753E-05 1.449507180951E-12 0.000000000000E+00
     1.800000000000E+01 1.128437500000E+02 2.340454632187E-09-8.805067877277E-01
     5.407258868217E-06 7.359276060015E-05 1.120381057262E-05 5.440619630814E+03
     3.948000000000E+05 5.401670932770E-08 2.180593504758E-02-5.587935447693E-09
     9.925890200140E-01 1.148750000000E+02-2.741458191275E+00-5.015923219050E-09
    -3.678724662220E-11 2.580000000000E+02 2.011000000000E+03
     3.120000000000E+00 0.000000000000E+00-6.752088665962E-09 0.000000000000E+00
     3.957400000000E+05
E30 2018 07 26 13 40 00 5.647143174428E-03-3.092281986028E-11 0.000000000000E+00
     1.800000000000E+01 1.205625000000E+02 2.393671134582E-09-1.509244452375E-02
     5.608424544334E-06 1.975753111765E-04 1.109763979912E-05 5.440614156723E+03
     3.948000000000E+05-5.587935447693E-09 2.554268278955E-02 2.048909664154E-08
     9.901401024639E-01 1.133437500000E+02 1.886867926274E+00-5.091640658699E-09
    -4.071598169835E-11 2.580000000000E+02 2.011000000000E+03
     3.120000000000E+00 0.000000000000E+00-3.725290298462E-09 0.000000000000E+00
     3.957800000000E+05
E19 2018 07 26 13 40 00-1.377088483423E-05 2.273736754432E-13 0.000000000000E+00
     1.800000000000E+01 3.243750000000E+01 3.412642150244E-09-2.782784380608E+00
     1.532956957817E-06 2.996179973707E-04 5.634501576424E-06 5.440606344223E+03
     3.948000000000E+05 5.587935447693E-09-2.073122459015E+00-7.636845111847E-08
     9.580448311213E-01 2.204375000000E+02-1.817715032339E+00-5.602376218600E-09
     4.475186409477E-10 5.170000000000E+02 2.011000000000E+03
     3.120000000000E+00 0.000000000000E+00-8.614733815193E-09-9.546056389809E-09
     3.958420000000E+05
E19 2018 07 26 13 40 00-1.376908039674E-05 2.984279490192E-13 0.000000000000E+00
     1.800000000000E+01 3.243750000000E+01 3.412642150244E-09-2.782784380608E+00
     1.532956957817E-06 2.996179973707E-04 5.634501576424E-06 5.440606344223E+03
     3.948000000000E+05 5.587935447693E-09-2.073122459015E+00-7.636845111847E-08
     9.580448311213E-01 2.204375000000E+02-1.817715032339E+00-5.602376218600E-09
     4.475186409477E-10 2.580000000000E+02 2.011000000000E+03
     3.120000000000E+00 0.000000000000E+00-8.614733815193E-09 0.000000000000E+00
     3.958700000000E+05
E30 2018 07 26 13 50 00 5.647124140523E-03-3.090860900556E-11 0.000000000000E+00
     1.900000000000E+01 1.183437500000E+02 2.377599036543E-09 5.873748774927E-02
     5.528330802917E-06 1.978372456506E-04 1.110881567001E-05 5.440614725113E+03
     3.954000000000E+05-1.676380634308E-08 2.553955507070E-02 1.490116119385E-08
     9.901400892976E-01 1.130312500000E+02 1.887423062724E+00-5.084497504015E-09
    -3.357282701443E-11 5.170000000000E+02 2.011000000000E+03
     3.120000000000E+00 0.000000000000E+00-3.725290298462E-09-4.423782229424E-09
     3.960660000000E+05
E02 2018 07 26 13 50 00 2.100807614625E-05 1.463718035666E-12 0.000000000000E+00
     1.900000000000E+01 1.130625000000E+02 2.343311894061E-09-8.073907419223E-01
     5.420297384262E-06 7.341196760535E-05 1.129321753979E-05 5.440619222641E+03
     3.954000000000E+05 5.029141902924E-08 2.180293313968E-02-1.862645149231E-09
     9.925889849040E-01 1.133437500000E+02-2.740189684768E+00-5.018780480923E-09
    -3.785871982478E-11 5.170000000000E+02 2.011000000000E+03
     3.120000000000E+00 0.000000000000E+00-6.752088665962E-09-8.149072527885E-09
     3.960660000000E+05
E19 2018 07 26 13 50 00-1.377059379593E-05 2.415845301584E-13 0.000000000000E+00
     1.900000000000E+01 3.271875000000E+01 3.420142462662E-09-2.708486339419E+00
     1.531094312668E-06 2.996454713866E-04 5.634501576424E-06 5.440606269836E+03
     3.954000000000E+05 2.048909664154E-08-2.073125752043E+00-7.636845111847E-08
     9.580451002982E-01 2.205937500000E+02-1.817627315771E+00-5.607733584613E-09
     4.400183285296E-10 5.170000000000E+02 2.011000000000E+03
     3.120000000000E+00 0.000000000000E+00-8.614733815193E-09-9.546056389809E-09
     3.960660000000E+05
E30 2018 07 26 13 50 00 5.647124664392E-03-3.092281986028E-11 0.000000000000E+00
     1.900000000000E+01 1.183437500000E+02 2.377599036543E-09 5.873748774927E-02
     5.528330802917E-06 1.978372456506E-04 1.110881567001E-05 5.440614725113E+03
     3.954000000000E+05-1.676380634308E-08 2.553955507070E-02 1.490116119385E-08
     9.901400892976E-01 1.130312500000E+02 1.887423062724E+00-5.084497504015E-09
    -3.357282701443E-11 2.580000000000E+02 2.011000000000E+03
     3.120000000000E+00 0.000000000000E+00-3.725290298462E-09 0.000000000000E+00
     3.961400000000E+05
